[{"OBJECT_NAME":"ONEWEB-0355","OBJECT_ID":"2021-083AJ","EPOCH":"2026-03-09T17:14:28.095936","MEAN_MOTION":13.13469681,"ECCENTRICITY":0.00019778,"INCLINATION":87.9022,"RA_OF_ASC_NODE":340.0327,"ARG_OF_PERICENTER":78.2456,"MEAN_ANOMALY":281.8895,"EPHEMERIS_TYPE":0,"CLASSIFICATION_TYPE":"U","NORAD_CAT_ID":49218,"ELEMENT_SET_NO":999,"REV_AT_EPOCH":21784,"BSTAR":2.496648e-5,"MEAN_MOTION_DOT":2.2e-7,"MEAN_MOTION_DDOT":0},{"OBJECT_NAME":"DELTA 1 DEB","OBJECT_ID":"1975-052CQ","EPOCH":"2026-03-09T22:30:29.890080","MEAN_MOTION":13.28179028,"ECCENTRICITY":0.00803318,"INCLINATION":99.9046,"RA_OF_ASC_NODE":193.8236,"ARG_OF_PERICENTER":71.2084,"MEAN_ANOMALY":49.3629,"EPHEMERIS_TYPE":0,"CLASSIFICATION_TYPE":"U","NORAD_CAT_ID":21370,"ELEMENT_SET_NO":999,"REV_AT_EPOCH":68654,"BSTAR":0.00014678314,"MEAN_MOTION_DOT":2.6e-7,"MEAN_MOTION_DDOT":0}]
